[Satellite]
VERSION=1.1
NAME=GPS BIIF-4
NICKNAME=GPS BIIF-4
TLE1=1 39166U 13023A   15054.45422064 -.00000031  00000-0  10000-3 0  9995
TLE2=2 39166  55.3678  73.9417 0019264   1.8444 358.2040  2.00562183 13008
